{
  "norad_id": 48385,
  "name": "STARLINK-2598",
  "history": [
    {
      "epoch": "2026-03-28T17:57:15.422688Z",
      "apogee_km": 475.55769627549034,
      "perigee_km": 474.7993083820038,
      "latitude_deg": 7.762047494990164e-05,
      "longitude_deg": 161.36050452049548,
      "height_km": 475.8927849736585,
      "semi_major_axis_km": 6853.315502328747,
      "eccentricity": 5.533e-05,
      "inclination_deg": 53.1584,
      "raan_deg": 256.8388,
      "arg_perigee_deg": 60.8587,
      "mean_anomaly_deg": 299.247,
      "mean_motion_rev_day": 15.30212247
    }
  ]
}