{"fetched_at":"2026-03-29T16:36:15Z","count":15609,"tles":[{"name":"STARLINK-2598","line1":"1 48385U 21038AJ  26087.74809517  .00004033  00000+0  14816-3 0  9998","line2":"2 48385  53.1584 256.8388 0000553  60.8587 299.2470 15.30212247271407","category":"Starlink"}]}